STARLINK-1565           
1 46037U 20055L   22117.60132572  .00002750  00000+0  20345-3 0  9991
2 46037  53.0555 345.7455 0001491  75.1490 284.9664 15.06399762 96056
STARLINK-1567           
1 46038U 20055M   22118.01416089  .00001279  00000+0  10479-3 0  9998
2 46038  53.0541 343.8874 0001583  83.1331 276.9838 15.06395512 95604
STARLINK-1569           
1 46039U 20055N   22117.82248476  .00004457  00000+0  31792-3 0  9992
2 46039  53.0534 344.7481 0001304  79.8793 280.2343 15.06403129 95575
STARLINK-1576           
1 46040U 20055P   22118.11736297  .00002359  00000+0  17720-3 0  9994
2 46040  53.0540 343.4160 0001534  77.8317 282.2844 15.06401055 95629
STARLINK-1580           
1 46041U 20055Q   22117.32394187 -.00000837  00000+0 -37317-4 0  9991
2 46041  53.0555 346.9800 0001537  74.4084 285.7075 15.06395997 95982
STARLINK-1581           
1 46042U 20055R   22118.10260921  .00001674  00000+0  13124-3 0  9994
2 46042  53.0547 343.4795 0001372  78.6187 281.4956 15.06402692 95629
STARLINK-1582           
1 46043U 20055S   22118.09524567  .00004034  00000+0  28953-3 0  9991
2 46043  53.0539 343.5278 0001612  78.6167 281.5003 15.06403520 95617
STARLINK-1584           
1 46044U 20055T   22117.04844184  .00002466  00000+0  18439-3 0  9991
2 46044  53.0553 348.2096 0001423  93.0441 267.0710 15.06398347 95973
STARLINK-1591           
1 46045U 20055U   22117.32488983  .00002779  00000+0  20539-3 0  9995
2 46045  53.0553 346.9688 0001540  69.6340 290.4815 15.06398137 95998
STARLINK-1514           
1 46046U 20055V   22117.74933494  .00146717  00000+0  11572-2 0  9991
2 46046  53.0502 255.7863 0004289 339.8575  20.2271 15.70465049 96826
STARLINK-1524           
1 46047U 20055W   22118.00770746  .00003357  00000+0  24412-3 0  9991
2 46047  53.0533 333.9087 0001425  82.0269 278.0882 15.06403015 95749
STARLINK-1527           
1 46048U 20055X   22118.00401516  .00001714  00000+0  13395-3 0  9991
2 46048  53.0565 333.9277 0001467  76.1814 283.9338 15.06404580 95741
STARLINK-1530           
1 46049U 20055Y   22117.60225724  .00000999  00000+0  85942-4 0  9994
2 46049  53.0557 335.7321 0001266  73.0843 287.0285 15.06389158 96209
STARLINK-1540           
1 46051U 20055AA  22117.57276681  .00001320  00000+0  10750-3 0  9994
2 46051  53.0550 335.8553 0001402  81.3500 278.7647 15.06393171 96206
STARLINK-1541           
1 46052U 20055AB  22117.82341021  .00000864  00000+0  76901-4 0  9997
2 46052  53.0552 334.7206 0001303  80.6172 279.4964 15.06396554 95712
STARLINK-1543           
1 46053U 20055AC  22117.82709967  .00000746  00000+0  68975-4 0  9996
2 46053  53.0561 334.7096 0001579  84.6577 275.4592 15.06391843 95717
STARLINK-1548           
1 46054U 20055AD  22117.90080938  .00002953  00000+0  21705-3 0  9997
2 46054  53.0558 334.3831 0001324  82.0289 278.0850 15.06402692 95707
STARLINK-1554           
1 46055U 20055AE  22118.01876049  .00002350  00000+0  17659-3 0  9991
2 46055  53.0529 333.8679 0001351  68.2999 291.8134 15.06403066 95719
STARLINK-1561           
1 46056U 20055AF  22117.84183525  .00003471  00000+0  25177-3 0  9991
2 46056  53.0552 334.6486 0001613  58.8077 301.3070 15.06406448 95706
STARLINK-1564           
1 46058U 20055AH  22117.78655502  .00000920  00000+0  80690-4 0  9993
2 46058  53.0561 334.8869 0001305  85.9229 274.1910 15.06388055 95694
STARLINK-1570           
1 46059U 20055AJ  22117.86027615  .00004598  00000+0  32736-3 0  9993
2 46059  53.0561 334.5627 0001442  81.1684 278.9468 15.06400341 95704
STARLINK-1572           
1 46060U 20055AK  22118.05561748  .00003068  00000+0  22474-3 0  9996
2 46060  53.0552 333.6900 0001421  66.4232 293.6906 15.06404279 95730
STARLINK-1573           
1 46061U 20055AL  22116.98670427  .00002500  00000+0  18670-3 0  9995
2 46061  53.0548 338.4963 0001576  68.7406 291.3751 15.06397075 96107
STARLINK-1574           
1 46062U 20055AM  22118.08141817  .00001014  00000+0  86939-4 0  9998
2 46062  53.0545 333.5764 0001600  63.4949 296.6204 15.06402109 95725
STARLINK-1577           
1 46063U 20055AN  22117.81236103  .00003787  00000+0  27301-3 0  9998
2 46063  53.0560 334.7908 0001535  85.1328 274.9836 15.06393738 95687
STARLINK-1583           
1 46064U 20055AP  22117.11570606  .00002615  00000+0  19438-3 0  9992
2 46064  53.0545 337.9147 0001407  74.5764 285.5380 15.06401901 96129
STARLINK-1515           
1 46065U 20055AQ  22117.83905876  .00001540  00000+0  12234-3 0  9996
2 46065  53.0560 314.6581 0001272  79.1563 280.9569 15.06382115 96009
STARLINK-1525           
1 46066U 20055AR  22117.84367848  .00001585  00000+0  12528-3 0  9994
2 46066  53.0542 314.6485 0001383  63.0257 297.0873 15.06404659 95978
STARLINK-1529           
1 46067U 20055AS  22117.51563635  .00000169  00000+0  30245-4 0  9995
2 46067  53.0550 316.1149 0001417  88.1106 272.0045 15.06387207 96469
STARLINK-1532           
1 46068U 20055AT  22117.99112230 -.00000311  00000+0 -19799-5 0  9992
2 46068  53.0555 313.9766 0001648  59.6584 300.4568 15.06394558 95994
STARLINK-1533           
1 46069U 20055AU  22117.54144263  .00006318  00000+0  44272-3 0  9998
2 46069  53.0556 315.9935 0001450  77.0166 283.0985 15.06393683 96478
STARLINK-1536           
1 46070U 20055AV  22117.82157041  .00000467  00000+0  50281-4 0  9996
2 46070  53.0571 314.7381 0001533  85.3986 274.7178 15.06391941 95973
STARLINK-1538           
1 46071U 20055AW  22117.83999713  .00002573  00000+0  19153-3 0  9990
2 46071  53.0534 314.6466 0001635  65.2313 294.8846 15.06401884 95973
STARLINK-1539           
1 46072U 20055AX  22117.79850912  .00003890  00000+0  27994-3 0  9998
2 46072  53.0546 314.8541 0001606  53.0344 307.0792 15.06397859 95962
STARLINK-1542           
1 46073U 20055AY  22117.81419145  .00000644  00000+0  62124-4 0  9990
2 46073  53.0558 314.7843 0001680  69.3373 290.7796 15.06397394 95971
STARLINK-1549           
1 46074U 20055AZ  22118.06483420  .00006151  00000+0  43135-3 0  9995
2 46074  53.0535 313.6430 0001688  60.0244 300.0912 15.06413492 96019
STARLINK-1551           
1 46075U 20055BA  22117.82525232  .00004567  00000+0  32526-3 0  9998
2 46075  53.0534 314.7173 0001419  61.7192 298.3940 15.06404390 95978
STARLINK-1552           
1 46076U 20055BB  22118.05008857  .00003579  00000+0  25900-3 0  9994
2 46076  53.0545 313.7222 0001575  66.6842 293.4312 15.06408123 96006
STARLINK-1559           
1 46077U 20055BC  22117.96532369  .00000861  00000+0  76746-4 0  9990
2 46077  53.0570 314.0919 0001576  65.9315 294.1839 15.06388728 95997
STARLINK-1563           
1 46078U 20055BD  22117.54512054  .00004372  00000+0  31221-3 0  9993
2 46078  53.0533 315.9954 0001547  57.9006 302.2133 15.06401421 96436
STARLINK-1566           
1 46079U 20055BE  22117.53775106  .00002031  00000+0  15525-3 0  9991
2 46079  53.0546 316.0128 0001321  78.4818 281.6319 15.06392697 96468
STARLINK-1568           
1 46080U 20055BF  22117.82893150  .00002788  00000+0  20598-3 0  9990
2 46080  53.0541 314.6965 0001225  59.5838 300.5272 15.06405473 95974
STARLINK-1571           
1 46081U 20055BG  22117.86210736  .00004083  00000+0  29280-3 0  9995
2 46081  53.0546 314.5526 0001218  88.3551 271.7577 15.06401951 95970
STARLINK-1578           
1 46082U 20055BH  22117.81788398  .00002800  00000+0  20683-3 0  9998
2 46082  53.0559 314.7558 0001437  74.0473 286.0674 15.06395140 95979
STARLINK-1579           
1 46083U 20055BJ  22117.58935768  .00000108  00000+0  26146-4 0  9998
2 46083  53.0545 315.7718 0001531  71.0933 289.0222 15.06390369 96462
GLOBAL-7                
1 46088U 20055BP  22118.03413700  .00076389  00000+0  96178-3 0  9996
2 46088  53.0040 119.9518 0007781   1.4748 358.6284 15.58952264102546
GLOBAL-8                
1 46089U 20055BQ  22117.45523972  .00007363  00000+0  10000-3 0  9991
2 46089  53.0011 125.6446 0004314 349.9499   9.9892 15.58793821102410
BSAT-4B                 
1 46112U 20056A   22117.56971642 -.00000363  00000+0  00000+0 0  9991
2 46112   0.0848 106.3029 0002803 350.4147  73.7392  1.00272823  6231
MEV-2                   
1 46113U 20056B   22117.40743625 -.00000024  00000+0  00000+0 0  9997
2 46113   0.0150 237.5065 0000673 181.3843 302.1750  1.00271395 65462
GALAXY 30 (G-30)        
1 46114U 20056C   22117.22131420  .00000024  00000+0  00000+0 0  9991
2 46114   0.0142 204.4385 0001886 198.6608 126.7427  1.00272752  6137
STARLINK-1585           
1 46117U 20057A   22117.48983596  .00001247  00000+0  10262-3 0  9995
2 46117  53.0521 156.2250 0001696  44.5881 315.5245 15.06394858 93499
STARLINK-1588           
1 46118U 20057B   22117.49904702  .00001802  00000+0  13986-3 0  9992
2 46118  53.0528 176.1819 0001777  48.8749 311.2393 15.06398929 94490
STARLINK-1593           
1 46119U 20057C   22118.15145214  .00001826  00000+0  14146-3 0  9997
2 46119  53.0533 173.2685 0001865  46.6588 313.4556 15.06400527 93976
STARLINK-1601           
1 46120U 20057D   22118.13671728  .00001539  00000+0  12219-3 0  9991
2 46120  53.0542 173.3294 0001775  44.9342 315.1790 15.06403900 93971
STARLINK-1602           
1 46121U 20057E   22117.57462019  .00000120  00000+0  26950-4 0  9993
2 46121  53.0542 155.8557 0001899  50.3186 309.7970 15.06394877 94166
STARLINK-1604           
1 46122U 20057F   22118.18094633  .00001824  00000+0  14134-3 0  9997
2 46122  53.0544 133.1147 0001667  58.0784 302.0367 15.06400563 94543
STARLINK-1605           
1 46123U 20057G   22117.76812378 -.00000792  00000+0 -34266-4 0  9999
2 46123  53.0546 134.9816 0002043  39.9765 320.1374 15.06399306 94477
STARLINK-1614           
1 46124U 20057H   22117.44375955  .00001491  00000+0  11900-3 0  9994
2 46124  53.0527 136.4408 0001829  53.1562 306.9595 15.06397065 93774
STARLINK-1618           
1 46125U 20057J   22117.88974912  .00002833  00000+0  20899-3 0  9999
2 46125  53.0552 174.4306 0001697  54.8778 305.2370 15.06406030 93936
